$$SOE
2460721.500000000, A.D. 2025-Feb-15 00:00:00.0000, -1.305837065134528E+07, 3.472089423863503E+08, -2.446260188899422E+07,
2460728.500000000, A.D. 2025-Feb-22 00:00:00.0000, -2.456398317925419E+07, 3.457713408747272E+08, -2.443350890326145E+07,
2460735.500000000, A.D. 2025-Mar-01 00:00:00.0000, -3.604109609447531E+07, 3.439339290252510E+08, -2.437614152509116E+07,
2460742.500000000, A.D. 2025-Mar-08 00:00:00.0000, -4.747613060035790E+07, 3.416959729075657E+08, -2.429036437173073E+07,
2460749.500000000, A.D. 2025-Mar-15 00:00:00.0000, -5.885535480443662E+07, 3.390571609991784E+08, -2.417607070881090E+07,
2460756.500000000, A.D. 2025-Mar-22 00:00:00.0000, -7.016489546455915E+07, 3.360176179945713E+08, -2.403318319994424E+07,
2460763.500000000, A.D. 2025-Mar-29 00:00:00.0000, -8.139074926899959E+07, 3.325779165155904E+08, -2.386165498129261E+07,
2460770.500000000, A.D. 2025-Apr-05 00:00:00.0000, -9.251879338241200E+07, 3.287390898203801E+08, -2.366147083265996E+07,
2460777.500000000, A.D. 2025-Apr-12 00:00:00.0000, -1.035347972315979E+08, 3.245026455669979E+08, -2.343264825800143E+07,
2460784.500000000, A.D. 2025-Apr-19 00:00:00.0000, -1.144244357664121E+08, 3.198705796903276E+08, -2.317523852628174E+07,
2460791.500000000, A.D. 2025-Apr-26 00:00:00.0000, -1.251733039728774E+08, 3.148453901244624E+08, -2.288932770992532E+07,
2460798.500000000, A.D. 2025-May-03 00:00:00.0000, -1.357669325713677E+08, 3.094300903201932E+08, -2.257503772526686E+07,
2460805.500000000, A.D. 2025-May-10 00:00:00.0000, -1.461908049146872E+08, 3.036282224906085E+08, -2.223252737202847E+07,
2460812.500000000, A.D. 2025-May-17 00:00:00.0000, -1.564303750890456E+08, 2.974438704613900E+08, -2.186199337310427E+07,
2460819.500000000, A.D. 2025-May-24 00:00:00.0000, -1.664710870794081E+08, 2.908816719818897E+08, -2.146367142899618E+07,
2460826.500000000, A.D. 2025-May-31 00:00:00.0000, -1.762983946121703E+08, 2.839468307112561E+08, -2.103783729311590E+07,
2460833.500000000, A.D. 2025-Jun-07 00:00:00.0000, -1.858977821029558E+08, 2.766451289818835E+08, -2.058480772580904E+07,
2460840.500000000, A.D. 2025-Jun-14 00:00:00.0000, -1.952547890947849E+08, 2.689829405689559E+08, -2.010494115832090E+07,
2460847.500000000, A.D. 2025-Jun-21 00:00:00.0000, -2.043550369742908E+08, 2.609672400807563E+08, -1.959863843744098E+07,
2460854.500000000, A.D. 2025-Jun-28 00:00:00.0000, -2.131842548355204E+08, 2.526056106024898E+08, -1.906634378249560E+07,
2460861.500000000, A.D. 2025-Jul-05 00:00:00.0000, -2.217283060082750E+08, 2.439062516222965E+08, -1.850854563087556E+07,
2460868.500000000, A.D. 2025-Jul-12 00:00:00.0000, -2.299732164256958E+08, 2.348779863083633E+08, -1.792577732068633E+07,
2460875.500000000, A.D. 2025-Jul-19 00:00:00.0000, -2.379052046089880E+08, 2.255302674257884E+08, -1.731861766482554E+07,
2460882.500000000, A.D. 2025-Jul-26 00:00:00.0000, -2.455107130159738E+08, 2.158731816947788E+08, -1.668769142971180E+07,
2460889.500000000, A.D. 2025-Aug-02 00:00:00.0000, -2.527764406322955E+08, 2.059174524682994E+08, -1.603366971223530E+07,
2460896.500000000, A.D. 2025-Aug-09 00:00:00.0000, -2.596893767117557E+08, 1.956744405703074E+08, -1.535727020751572E+07,
2460903.500000000, A.D. 2025-Aug-16 00:00:00.0000, -2.662368355033513E+08, 1.851561430872783E+08, -1.465925736880620E+07,
2460910.500000000, A.D. 2025-Aug-23 00:00:00.0000, -2.724064915705679E+08, 1.743751899867293E+08, -1.394044247405535E+07,
2460917.500000000, A.D. 2025-Aug-30 00:00:00.0000, -2.781864152554721E+08, 1.633448391362615E+08, -1.320168355997314E+07,
2460924.500000000, A.D. 2025-Sep-06 00:00:00.0000, -2.835651095725930E+08, 1.520789705871095E+08, -1.244388500136812E+07,
2460931.500000000, A.D. 2025-Sep-13 00:00:00.0000, -2.885315500579252E+08, 1.405920775135904E+08, -1.166799677640819E+07,
2460938.500000000, A.D. 2025-Sep-20 00:00:00.0000, -2.930752241309714E+08, 1.288992520509271E+08, -1.087501384309830E+07,
2460945.500000000, A.D. 2025-Sep-27 00:00:00.0000, -2.971861687168794E+08, 1.170161690312607E+08, -1.006597545904391E+07,
2460952.500000000, A.D. 2025-Oct-04 00:00:00.0000, -3.008550079477036E+08, 1.049590680556664E+08, -9.241964207697574E+06,
2460959.500000000, A.D. 2025-Oct-11 00:00:00.0000, -3.040729911095605E+08, 9.274473288467394E+07, -8.404104768829916E+06,
2460966.500000000, A.D. 2025-Oct-18 00:00:00.0000, -3.068320303220540E+08, 8.039046782002068E+07, -7.553562476327363E+06,
2460973.500000000, A.D. 2025-Oct-25 00:00:00.0000, -3.091247375593552E+08, 6.791407105388235E+07, -6.691541669753544E+06,
2460980.500000000, A.D. 2025-Nov-01 00:00:00.0000, -3.109444607044386E+08, 5.533380498430362E+07, -5.819283837089246E+06,
2460987.500000000, A.D. 2025-Nov-08 00:00:00.0000, -3.122853183220419E+08, 4.266836346469939E+07, -4.938065551054196E+06,
2460994.500000000, A.D. 2025-Nov-15 00:00:00.0000, -3.131422327246348E+08, 2.993683594759297E+07, -4.049196217440497E+06,
2461001.500000000, A.D. 2025-Nov-22 00:00:00.0000, -3.135109606601323E+08, 1.715866879164322E+07, -3.154015658571239E+06,
2461008.500000000, A.D. 2025-Nov-29 00:00:00.0000, -3.133881215100525E+08, 4.353624953842180E+06, -2.253891431965405E+06,
2461015.500000000, A.D. 2025-Dec-06 00:00:00.0000, -3.127712250096017E+08, -8.458257947395284E+06, -1.350215694690393E+06,
2461022.500000000, A.D. 2025-Dec-13 00:00:00.0000, -3.116586977937862E+08, -2.125671441653477E+07, -4.444019381302716E+05,
2461029.500000000, A.D. 2025-Dec-20 00:00:00.0000, -3.100499050180344E+08, -3.402130150519734E+07, 4.621181598190833E+05,
2461036.500000000, A.D. 2025-Dec-27 00:00:00.0000, -3.079451678687407E+08, -4.673145007315058E+07, 1.367898064291220E+06,
2461043.500000000, A.D. 2026-Jan-03 00:00:00.0000, -3.053457781808441E+08, -5.936651727018465E+07, 2.271479963948779E+06,
2461050.500000000, A.D. 2026-Jan-10 00:00:00.0000, -3.022540098428537E+08, -7.190584066120496E+07, 3.171398519108996E+06,
2461057.500000000, A.D. 2026-Jan-17 00:00:00.0000, -2.986731265745152E+08, -8.432879379865432E+07, 4.066184729362875E+06,
2461064.500000000, A.D. 2026-Jan-24 00:00:00.0000, -2.946073858404691E+08, -9.661484290707158E+07, 4.954369894936949E+06,
2461071.500000000, A.D. 2026-Jan-31 00:00:00.0000, -2.900620387462038E+08, -1.087436043557438E+08, 5.834489646990307E+06,
2461078.500000000, A.D. 2026-Feb-07 00:00:00.0000, -2.850433257579806E+08, -1.206949026295897E+08, 6.705088012955241E+06,
2461085.500000000, A.D. 2026-Feb-14 00:00:00.0000, -2.795584679328070E+08, -1.324488284536655E+08, 7.564721467733122E+06,
2461092.500000000, A.D. 2026-Feb-21 00:00:00.0000, -2.736156532469915E+08, -1.439857961253496E+08, 8.411962956816919E+06,
2461099.500000000, A.D. 2026-Feb-28 00:00:00.0000, -2.672240191210542E+08, -1.552865985273918E+08, 9.245406058920853E+06,
2461106.500000000, A.D. 2026-Mar-07 00:00:00.0000, -2.603936332511731E+08, -1.663324614012116E+08, 1.006366929081836E+07,
2461113.500000000, A.D. 2026-Mar-14 00:00:00.0000, -2.531354700669706E+08, -1.771050988513031E+08, 1.086540008260774E+07,
2461120.500000000, A.D. 2026-Mar-21 00:00:00.0000, -2.454613811694580E+08, -1.875867668286541E+08, 1.164927847144561E+07,
2461127.500000000, A.D. 2026-Mar-28 00:00:00.0000, -2.373840619279364E+08, -1.977603132198592E+08, 1.241402075803307E+07,
2461134.500000000, A.D. 2026-Apr-04 00:00:00.0000, -2.289170150390152E+08, -2.076092251812952E+08, 1.315838307873800E+07,
2461141.500000000, A.D. 2026-Apr-11 00:00:00.0000, -2.200745110058531E+08, -2.171176737801330E+08, 1.388116481592275E+07,
2461148.500000000, A.D. 2026-Apr-18 00:00:00.0000, -2.108715456455154E+08, -2.262705556813310E+08, 1.458121181051707E+07,
2461155.500000000, A.D. 2026-Apr-25 00:00:00.0000, -2.013237948757670E+08, -2.350535316261263E+08, 1.525741935587537E+07,
2461162.500000000, A.D. 2026-May-02 00:00:00.0000, -1.914475670690505E+08, -2.434530615205184E+08, 1.590873495199414E+07,
2461169.500000000, A.D. 2026-May-09 00:00:00.0000, -1.812597531833113E+08, -2.514564360210318E+08, 1.653416078930236E+07,
2461176.500000000, A.D. 2026-May-16 00:00:00.0000, -1.707777746374849E+08, -2.590518043349162E+08, 1.713275592639388E+07,
2461183.500000000, A.D. 2026-May-23 00:00:00.0000, -1.600195292316411E+08, -2.662281971036305E+08, 1.770363822996491E+07,
2461190.500000000, A.D. 2026-May-30 00:00:00.0000, -1.490033375421213E+08, -2.729755439791253E+08, 1.824598628504585E+07,
2461197.500000000, A.D. 2026-Jun-06 00:00:00.0000, -1.377478904582679E+08, -2.792846891388962E+08, 1.875904103102913E+07,
2461204.500000000, A.D. 2026-Jun-13 00:00:00.0000, -1.262721945440602E+08, -2.851474045597064E+08, 1.924210680157393E+07,
2461211.500000000, A.D. 2026-Jun-20 00:00:00.0000, -1.145955160730258E+08, -2.905563981807122E+08, 1.969455205581318E+07,
2461218.500000000, A.D. 2026-Jun-27 00:00:00.0000, -1.027373257730106E+08, -2.955053173825370E+08, 2.011580993415697E+07,
2461225.500000000, A.D. 2026-Jul-04 00:00:00.0000, -9.071724460418962E+07, -2.999887486703911E+08, 2.050537858253509E+07,
2461232.500000000, A.D. 2026-Jul-11 00:00:00.0000, -7.855499061907554E+07, -3.040022138309726E+08, 2.086282121928672E+07,
2461239.500000000, A.D. 2026-Jul-18 00:00:00.0000, -6.627032709025650E+07, -3.075421627006552E+08, 2.118776594782795E+07,
2461246.500000000, A.D. 2026-Jul-25 00:00:00.0000, -5.388301213706307E+07, -3.106059627302144E+08, 2.147990532487497E+07,
2461253.500000000, A.D. 2026-Aug-01 00:00:00.0000, -4.141275003735745E+07, -3.131918855989227E+08, 2.173899568966602E+07,
2461260.500000000, A.D. 2026-Aug-08 00:00:00.0000, -2.887914421811754E+07, -3.152990911258078E+08, 2.196485624539529E+07,
2461267.500000000, A.D. 2026-Aug-15 00:00:00.0000, -1.630165168526548E+07, -3.169276082447860E+08, 2.215736790428233E+07,
2461274.500000000, A.D. 2026-Aug-22 00:00:00.0000, -3.699539793256605E+06, -3.180783120502903E+08, 2.231647207837866E+07,
2461281.500000000, A.D. 2026-Aug-29 00:00:00.0000, 8.908152248243473E+06, -3.187528985295814E+08, 2.244216952820447E+07,
$$EOE